{
  "norad_id": 56894,
  "name": "STARLINK-6144",
  "history": [
    {
      "epoch": "2026-03-28T22:00:01.999584Z",
      "apogee_km": 533.6064021334869,
      "perigee_km": 532.2377359954507,
      "latitude_deg": 39.818578202404225,
      "longitude_deg": -117.3731397287493,
      "height_km": 535.979968342855,
      "semi_major_axis_km": 6911.0590690644685,
      "eccentricity": 9.902e-05,
      "inclination_deg": 43.0015,
      "raan_deg": 336.2052,
      "arg_perigee_deg": 274.831,
      "mean_anomaly_deg": 154.5546,
      "mean_motion_rev_day": 15.11074423
    },
    {
      "epoch": "2026-03-29T04:00:01.999584Z",
      "apogee_km": 533.9523033790001,
      "perigee_km": 532.0724707457193,
      "latitude_deg": -6.266371229076161,
      "longitude_deg": 81.51991655729984,
      "height_km": 533.6312932890307,
      "semi_major_axis_km": 6911.14938706236,
      "eccentricity": 0.000136,
      "inclination_deg": 43.0,
      "raan_deg": 334.8301,
      "arg_perigee_deg": 272.2559,
      "mean_anomaly_deg": 78.657,
      "mean_motion_rev_day": 15.11044802
    },
    {
      "epoch": "2026-03-30T04:00:01.999584Z",
      "apogee_km": 533.8043498197794,
      "perigee_km": 532.1677958761284,
      "latitude_deg": 24.355261934027418,
      "longitude_deg": 110.6183208142355,
      "height_km": 533.2485004176042,
      "semi_major_axis_km": 6911.123072847953,
      "eccentricity": 0.0001184,
      "inclination_deg": 43.0001,
      "raan_deg": 329.3224,
      "arg_perigee_deg": 271.5424,
      "mean_anomaly_deg": 125.51,
      "mean_motion_rev_day": 15.11053432
    },
    {
      "epoch": "2026-03-30T06:00:02.000160Z",
      "apogee_km": 533.7554583775909,
      "perigee_km": 532.0738612877194,
      "latitude_deg": 31.15726210905821,
      "longitude_deg": -168.94049660879384,
      "height_km": 534.3128512425,
      "semi_major_axis_km": 6911.051659832655,
      "eccentricity": 0.00012166,
      "inclination_deg": 43.0001,
      "raan_deg": 328.8626,
      "arg_perigee_deg": 268.8516,
      "mean_anomaly_deg": 222.0386,
      "mean_motion_rev_day": 15.11076853
    },
    {
      "epoch": "2026-03-30T14:00:03.000384Z",
      "apogee_km": 533.8380889837899,
      "perigee_km": 532.1173596397311,
      "latitude_deg": 22.28987387110112,
      "longitude_deg": 83.11659576992865,
      "height_km": 532.8225047666639,
      "semi_major_axis_km": 6911.11472431176,
      "eccentricity": 0.00012449,
      "inclination_deg": 42.9999,
      "raan_deg": 327.026,
      "arg_perigee_deg": 255.7354,
      "mean_anomaly_deg": 250.6093,
      "mean_motion_rev_day": 15.1105617
    },
    {
      "epoch": "2026-03-30T22:00:00.999936Z",
      "apogee_km": 533.7373531260146,
      "perigee_km": 532.1443496812672,
      "latitude_deg": 12.462155241053756,
      "longitude_deg": -26.74508768841353,
      "height_km": 532.1497325127086,
      "semi_major_axis_km": 6911.077851403641,
      "eccentricity": 0.00011525,
      "inclination_deg": 42.9997,
      "raan_deg": 325.1933,
      "arg_perigee_deg": 265.6779,
      "mean_anomaly_deg": 255.9157,
      "mean_motion_rev_day": 15.11068263
    },
    {
      "epoch": "2026-03-31T20:00:01.999008Z",
      "apogee_km": 533.7460060216627,
      "perigee_km": 532.1191402441464,
      "latitude_deg": 38.70944997735914,
      "longitude_deg": -47.79608296755808,
      "height_km": 535.8437316479731,
      "semi_major_axis_km": 6911.069573132904,
      "eccentricity": 0.0001177,
      "inclination_deg": 42.9996,
      "raan_deg": 320.1455,
      "arg_perigee_deg": 263.872,
      "mean_anomaly_deg": 210.0594,
      "mean_motion_rev_day": 15.11070978
    },
    {
      "epoch": "2026-04-01T00:15:29.352960Z",
      "apogee_km": 533.7119848040957,
      "perigee_km": 532.1756515382176,
      "latitude_deg": -1.0470652017127875e-05,
      "longitude_deg": 125.91347005185341,
      "height_km": 532.7386086566811,
      "semi_major_axis_km": 6911.080818171156,
      "eccentricity": 0.00011115,
      "inclination_deg": 43.0024,
      "raan_deg": 319.1657,
      "arg_perigee_deg": 268.7742,
      "mean_anomaly_deg": 91.2976,
      "mean_motion_rev_day": 15.1106729
    },
    {
      "epoch": "2026-04-02T20:40:42.048192Z",
      "apogee_km": 533.6961930326888,
      "perigee_km": 532.1177105940942,
      "latitude_deg": 2.334607502996895e-05,
      "longitude_deg": 167.59553862680175,
      "height_km": 532.6648902854423,
      "semi_major_axis_km": 6911.043951813391,
      "eccentricity": 0.0001142,
      "inclination_deg": 43.0018,
      "raan_deg": 308.9749,
      "arg_perigee_deg": 271.4796,
      "mean_anomaly_deg": 88.5919,
      "mean_motion_rev_day": 15.11079381
    },
    {
      "epoch": "2026-04-02T20:40:42.049056Z",
      "apogee_km": 533.6960548118086,
      "perigee_km": 532.1178488149735,
      "latitude_deg": 2.1774163583966866e-05,
      "longitude_deg": 167.5955333406374,
      "height_km": 532.6648938537745,
      "semi_major_axis_km": 6911.043951813391,
      "eccentricity": 0.00011418,
      "inclination_deg": 43.0018,
      "raan_deg": 308.9749,
      "arg_perigee_deg": 271.4796,
      "mean_anomaly_deg": 88.5919,
      "mean_motion_rev_day": 15.11079381
    },
    {
      "epoch": "2026-04-02T23:51:04.503168Z",
      "apogee_km": 533.7783854817753,
      "perigee_km": 532.0329325478151,
      "latitude_deg": 7.156063666440528e-05,
      "longitude_deg": 119.14402119348796,
      "height_km": 532.727391809138,
      "semi_major_axis_km": 6911.042659014795,
      "eccentricity": 0.00012628,
      "inclination_deg": 43.0013,
      "raan_deg": 308.2472,
      "arg_perigee_deg": 267.1507,
      "mean_anomaly_deg": 92.9195,
      "mean_motion_rev_day": 15.11079805
    },
    {
      "epoch": "2026-04-03T22:03:41.165280Z",
      "apogee_km": 534.508110148221,
      "perigee_km": 531.3422907754339,
      "latitude_deg": 3.5807141236842904e-06,
      "longitude_deg": 139.97994999043217,
      "height_km": 533.2616894586657,
      "semi_major_axis_km": 6911.062200461827,
      "eccentricity": 0.00022904,
      "inclination_deg": 43.003,
      "raan_deg": 303.1481,
      "arg_perigee_deg": 249.385,
      "mean_anomaly_deg": 110.675,
      "mean_motion_rev_day": 15.11073396
    },
    {
      "epoch": "2026-04-05T13:43:22.720800Z",
      "apogee_km": 534.0085111660728,
      "perigee_km": 531.9489986711078,
      "latitude_deg": -7.64091086147571e-06,
      "longitude_deg": -105.66765365772055,
      "height_km": 532.5851410602125,
      "semi_major_axis_km": 6911.11575491859,
      "eccentricity": 0.000149,
      "inclination_deg": 43.0021,
      "raan_deg": 294.0525,
      "arg_perigee_deg": 279.6302,
      "mean_anomaly_deg": 80.4375,
      "mean_motion_rev_day": 15.11055832
    },
    {
      "epoch": "2026-04-05T13:43:22.721664Z",
      "apogee_km": 534.0081656102857,
      "perigee_km": 531.9493442268949,
      "latitude_deg": -1.1517371268178002e-05,
      "longitude_deg": -105.66766140144156,
      "height_km": 532.5851988595663,
      "semi_major_axis_km": 6911.11575491859,
      "eccentricity": 0.00014895,
      "inclination_deg": 43.0021,
      "raan_deg": 294.0525,
      "arg_perigee_deg": 279.6302,
      "mean_anomaly_deg": 80.4375,
      "mean_motion_rev_day": 15.11055832
    },
    {
      "epoch": "2026-04-05T20:04:07.462272Z",
      "apogee_km": 533.7455979607594,
      "perigee_km": 532.1824451317061,
      "latitude_deg": -1.2074617996783539e-05,
      "longitude_deg": 157.42930717512516,
      "height_km": 532.5662591280827,
      "semi_major_axis_km": 6911.101021546233,
      "eccentricity": 0.00011309,
      "inclination_deg": 43.0015,
      "raan_deg": 292.5965,
      "arg_perigee_deg": 283.0168,
      "mean_anomaly_deg": 77.0551,
      "mean_motion_rev_day": 15.11060664
    },
    {
      "epoch": "2026-04-07T13:18:57.826080Z",
      "apogee_km": 533.7825230053031,
      "perigee_km": 532.0431499824545,
      "latitude_deg": 4.973558619852634e-05,
      "longitude_deg": -112.439347884362,
      "height_km": 532.6826537455039,
      "semi_major_axis_km": 6911.0498364938785,
      "eccentricity": 0.00012584,
      "inclination_deg": 43.0011,
      "raan_deg": 283.1316,
      "arg_perigee_deg": 270.5612,
      "mean_anomaly_deg": 89.509,
      "mean_motion_rev_day": 15.11077451
    },
    {
      "epoch": "2026-04-07T19:39:42.792192Z",
      "apogee_km": 533.9342459002255,
      "perigee_km": 531.9383279349631,
      "latitude_deg": 3.0719559932516824e-05,
      "longitude_deg": 150.65725853325753,
      "height_km": 532.6318177817407,
      "semi_major_axis_km": 6911.0732869175945,
      "eccentricity": 0.0001444,
      "inclination_deg": 43.0009,
      "raan_deg": 281.6762,
      "arg_perigee_deg": 274.7677,
      "mean_anomaly_deg": 85.3004,
      "mean_motion_rev_day": 15.1106976
    },
    {
      "epoch": "2026-04-08T13:06:45.745056Z",
      "apogee_km": 533.9097602610782,
      "perigee_km": 531.9493671196215,
      "latitude_deg": 5.2818784832934076e-05,
      "longitude_deg": -115.8256034381521,
      "height_km": 532.7646647396816,
      "semi_major_axis_km": 6911.0665636903495,
      "eccentricity": 0.00014183,
      "inclination_deg": 43.0013,
      "raan_deg": 277.6723,
      "arg_perigee_deg": 266.6885,
      "mean_anomaly_deg": 93.3799,
      "mean_motion_rev_day": 15.11071965
    },
    {
      "epoch": "2026-04-09T20:50:29.645088Z",
      "apogee_km": 533.9111513096768,
      "perigee_km": 531.9442622941197,
      "latitude_deg": -1.3707128031455332e-06,
      "longitude_deg": 119.65986002164085,
      "height_km": 532.7897941460187,
      "semi_major_axis_km": 6911.064706801898,
      "eccentricity": 0.0001423,
      "inclination_deg": 43.0016,
      "raan_deg": 270.3938,
      "arg_perigee_deg": 265.1253,
      "mean_anomaly_deg": 94.943,
      "mean_motion_rev_day": 15.11072574
    }
  ]
}